KUIPER-00061            
1 64521U 25134X   25204.65574874  .00023470  00000+0  67993-3 0  9994
2 64521  51.8727 185.3906 0004868 214.5338 145.5332 15.35442721  5871
KUIPER-00062            
1 64522U 25134Y   25204.64930962  .00028071  00000+0  80236-3 0  9995
2 64522  51.8732 185.3504 0004174 202.1678 157.9128 15.35765173  5882
KUIPER-00063            
1 64523U 25134Z   25205.15944584 -.00003021  00000+0 -73493-4 0  9996
2 64523  51.8732 182.7719 0002796 180.9995 179.0986 15.36233044  5509
KUIPER-00064            
1 64524U 25134AA  25205.00002315  .00022783  00000+0  62965-3 0  9993
2 64524  51.8759 183.4154 0001580 123.0409 136.3467 15.36942154  5787
KUIPER-00065            
1 64525U 25134AB  25204.67063735  .00027436  00000+0  81023-3 0  9995
2 64525  51.8705 185.4792 0008005 218.4100 141.6316 15.34731037  5871
KUIPER-00066            
1 64526U 25134AC  25205.21832496  .00020670  00000+0  57660-3 0  9998
2 64526  51.8755 182.4206 0001356 141.8213 218.2870 15.36714448  5516
KUIPER-00069            
1 64816U 25151A   25205.16668981  .00023945  00000+0  68932-3 0  9991
2 64816  51.8777 249.5136 0006154 161.8700 339.6259 15.35624181  2387
KUIPER-00070            
1 64817U 25151B   25205.16668981  .00023450  00000+0  68993-3 0  9990
2 64817  51.8771 249.5534 0005848 184.0669 297.2948 15.34952851  2385
